STARLINK-34731          
1 65029U 25161Q   26157.53845221  .00034494  00000+0  10277-2 0  9990
2 65029  53.1590 240.7518 0001013  79.5841 280.5275 15.34389234 48949
STARLINK-34614          
1 65030U 25161R   26157.50527062  .00029119  00000+0  99012-3 0  9992
2 65030  53.1588 241.9670 0001286  75.4098 284.7045 15.30242790 48921
STARLINK-34677          
1 65031U 25161S   26157.50104596  .00039078  00000+0  13229-2 0  9996
2 65031  53.1595 241.9410 0001139  74.4398 285.6729 15.30241149 47825
STARLINK-34656          
1 65032U 25161T   26157.49896301  .00040649  00000+0  13764-2 0  9997
2 65032  53.1595 241.9283 0001001  85.5715 274.5400 15.30216541 48921
STARLINK-34610          
1 65034U 25161V   26157.48521892  .00022806  00000+0  77908-3 0  9994
2 65034  53.1594 241.8390 0001292  92.9259 267.1889 15.30227847 47825
STARLINK-34286          
1 65035U 25161W   26157.47960786  .00027470  00000+0  82043-3 0  9991
2 65035  53.1602 241.0951 0001297  91.2850 268.8301 15.34428830 47832
STARLINK-34770          
1 65036U 25161X   26157.49577440  .00035283  00000+0  11966-2 0  9991
2 65036  53.1595 241.9059 0001201  74.6536 285.4598 15.30231592 47828
STARLINK-34776          
1 65037U 25161Y   26157.49154977  .00023759  00000+0  81102-3 0  9993
2 65037  53.1602 241.8763 0001247 110.1378 249.9757 15.30228961 47827
STARLINK-34827          
1 65038U 25161Z   26157.48802303  .00043856  00000+0  13000-2 0  9997
2 65038  53.1601 241.1453 0001499  79.8859 280.2313 15.34437827 47834
STARLINK-34721          
1 65039U 25161AA  26157.51254459  .00036537  00000+0  12384-2 0  9997
2 65039  53.1584 241.2978 0001212  79.2572 280.8566 15.30233194 47830
STARLINK-34819          
1 65040U 25161AB  26157.51054718  .00028633  00000+0  97418-3 0  9995
2 65040  53.1589 241.9958 0001249  96.8022 263.3121 15.30232030 47827
STARLINK-34820          
1 65041U 25161AC  26157.53632438  .00035106  00000+0  10441-2 0  9992
2 65041  53.1581 240.7408 0001042  93.1941 266.9181 15.34436567 47840
STARLINK-34824          
1 65042U 25161AD  26157.49012085  .00029065  00000+0  86803-3 0  9991
2 65042  53.1604 241.1594 0001176 104.0432 256.0701 15.34399517 47833
HULIANWANG DIGUI-40     
1 65043U 25162A   26157.64101206 -.00000087  00000+0  79526-4 0  9993
2 65043  50.0007 303.7683 0000382  99.5137 260.5778 13.29324821 41947
HULIANWANG DIGUI-41     
1 65044U 25162B   26157.63266157 -.00000090  00000+0  74392-4 0  9990
2 65044  50.0017 303.7494 0000336  96.5635 263.5275 13.29324422 41951
HULIANWANG DIGUI-42     
1 65045U 25162C   26157.62426756 -.00000077  00000+0  10108-3 0  9992
2 65045  49.9982 303.6196 0000369  99.6197 260.4717 13.29325081 41950
HULIANWANG DIGUI-43     
1 65046U 25162D   26157.61590709 -.00000075  00000+0  10517-3 0  9994
2 65046  49.9999 303.6201 0000389 107.5576 252.5339 13.29323634 41952
HULIANWANG DIGUI-44     
1 65047U 25162E   26157.60721826 -.00000073  00000+0  10913-3 0  9998
2 65047  50.0027 303.6415 0001016 200.3713 159.7119 13.29316151 41969
HULIANWANG DIGUI-45     
1 65048U 25162F   26157.59923532 -.00000077  00000+0  10244-3 0  9996
2 65048  50.0056 303.6747 0000359  96.1909 263.9004 13.29324601 41956
HULIANWANG DIGUI-46     
1 65049U 25162G   26157.59089609 -.00000073  00000+0  10998-3 0  9997
2 65049  50.0075 303.6763 0000387  95.1185 264.9732 13.29324524 41955
HULIANWANG DIGUI-47     
1 65050U 25162H   26157.65771942 -.00000078  00000+0  10019-3 0  9993
2 65050  50.0039 303.2763 0000430  96.6704 263.4217 13.29324112 41961
HULIANWANG DIGUI-48     
1 65051U 25162J   26157.64938276 -.00000080  00000+0  94921-4 0  9996
2 65051  50.0049 303.2570 0000388  98.4874 261.6042 13.29325032 41967
NISAR                   
1 65053U 25163A   26157.55231610  .00000187  00000+0  69553-4 0  9997
2 65053  98.4054 345.3728 0001215  89.6107 270.5222 14.42505666 44853
PRSC-S1                 
1 65055U 25164A   26157.58978471  .00006121  00000+0  41996-3 0  9990
2 65055  41.1315 347.4924 0007624 281.7615  78.2344 15.06359640 46838
STARLINK-34788          
1 65056U 25165A   26157.63347218  .00010818  00000+0  75253-3 0  9998
2 65056  97.3960 234.2322 0002461 133.4182 226.7250 15.05654233 48179
STARLINK-34745          
1 65057U 25165B   26157.45348340  .00004998  00000+0  35004-3 0  9998
2 65057  97.3959 234.0166 0001951 113.5918 246.5515 15.05661510 48148
STARLINK-34779          
1 65058U 25165C   26157.49779015  .00008147  00000+0  56785-3 0  9999
2 65058  97.3983 234.1072 0001431 142.6445 217.4882 15.05659785 48150
STARLINK-34803          
1 65059U 25165D   26157.49225211  .00003262  00000+0  22992-3 0  9990
2 65059  97.3958 234.1167 0001282 145.2202 214.9110 15.05664508 48157
STARLINK-34717          
1 65060U 25165E   26157.61409818  .00005594  00000+0  39131-3 0  9996
2 65060  97.3964 234.2578 0002080 102.2732 257.8729 15.05659450 48175
STARLINK-34750          
1 65061U 25165F   26157.46733780  .00007568  00000+0  52784-3 0  9990
2 65061  97.3968 234.1500 0001141 133.9304 226.2018 15.05661754 48156
