OBJECT_NAME,OBJECT_ID,EPOCH,MEAN_MOTION,ECCENTRICITY,INCLINATION,RA_OF_ASC_NODE,ARG_OF_PERICENTER,MEAN_ANOMALY,EPHEMERIS_TYPE,CLASSIFICATION_TYPE,NORAD_CAT_ID,ELEMENT_SET_NO,REV_AT_EPOCH,BSTAR,MEAN_MOTION_DOT,MEAN_MOTION_DDOT
STARLINK-34731,2025-161Q,2026-06-06T12:55:22.270944,15.34389234,.00010139,53.1590,240.7518,79.5841,280.5275,0,U,65029,999,4894,.10277035E-2,.34494E-3,0
STARLINK-34614,2025-161R,2026-06-06T12:07:35.381568,15.30242790,.00012861,53.1588,241.9670,75.4098,284.7045,0,U,65030,999,4892,.99012062E-3,.29119E-3,0
STARLINK-34677,2025-161S,2026-06-06T12:01:30.370944,15.30241149,.0001139,53.1595,241.9410,74.4398,285.6729,0,U,65031,999,4782,.13229177E-2,.39078E-3,0
STARLINK-34656,2025-161T,2026-06-06T11:58:30.404064,15.30216541,.00010019,53.1595,241.9283,85.5715,274.5400,0,U,65032,999,4892,.1376359E-2,.40649E-3,0
STARLINK-34610,2025-161V,2026-06-06T11:38:42.914688,15.30227847,.00012928,53.1594,241.8390,92.9259,267.1889,0,U,65034,999,4782,.77907947E-3,.22806E-3,0
STARLINK-34286,2025-161W,2026-06-06T11:30:38.119104,15.34428830,.00012975,53.1602,241.0951,91.2850,268.8301,0,U,65035,999,4783,.82042722E-3,.2747E-3,0
STARLINK-34770,2025-161X,2026-06-06T11:53:54.908160,15.30231592,.00012013,53.1595,241.9059,74.6536,285.4598,0,U,65036,999,4782,.11965616E-2,.35283E-3,0
STARLINK-34776,2025-161Y,2026-06-06T11:47:49.900128,15.30228961,.00012474,53.1602,241.8763,110.1378,249.9757,0,U,65037,999,4782,.81101708E-3,.23759E-3,0
STARLINK-34827,2025-161Z,2026-06-06T11:42:45.189792,15.34437827,.00014999,53.1601,241.1453,79.8859,280.2313,0,U,65038,999,4783,.12999858E-2,.43856E-3,0
STARLINK-34721,2025-161AA,2026-06-06T12:18:03.852576,15.30233194,.0001212,53.1584,241.2978,79.2572,280.8566,0,U,65039,999,4783,.12384182E-2,.36537E-3,0
STARLINK-34819,2025-161AB,2026-06-06T12:15:11.276352,15.30232030,.00012497,53.1589,241.9958,96.8022,263.3121,0,U,65040,999,4782,.9741837E-3,.28633E-3,0
STARLINK-34820,2025-161AC,2026-06-06T12:52:18.426432,15.34436567,.00010421,53.1581,240.7408,93.1941,266.9181,0,U,65041,999,4784,.10440762E-2,.35106E-3,0
STARLINK-34824,2025-161AD,2026-06-06T11:45:46.441440,15.34399517,.00011763,53.1604,241.1594,104.0432,256.0701,0,U,65042,999,4783,.86802756E-3,.29065E-3,0
HULIANWANG DIGUI-40,2025-162A,2026-06-06T15:23:03.441984,13.29324821,.0000382,50.0007,303.7683,99.5137,260.5778,0,U,65043,999,4194,.79526364E-4,-.87E-6,0
HULIANWANG DIGUI-41,2025-162B,2026-06-06T15:11:01.959648,13.29324422,.00003366,50.0017,303.7494,96.5635,263.5275,0,U,65044,999,4195,.74392202E-4,-.9E-6,0
HULIANWANG DIGUI-42,2025-162C,2026-06-06T14:58:56.717184,13.29325081,.00003699,49.9982,303.6196,99.6197,260.4717,0,U,65045,999,4195,.10107977E-3,-.77E-6,0
HULIANWANG DIGUI-43,2025-162D,2026-06-06T14:46:54.372576,13.29323634,.00003896,49.9999,303.6201,107.5576,252.5339,0,U,65046,999,4195,.1051717E-3,-.75E-6,0
HULIANWANG DIGUI-44,2025-162E,2026-06-06T14:34:23.657664,13.29316151,.00010167,50.0027,303.6415,200.3713,159.7119,0,U,65047,999,4196,.10913193E-3,-.73E-6,0
HULIANWANG DIGUI-45,2025-162F,2026-06-06T14:22:53.931648,13.29324601,.00003596,50.0056,303.6747,96.1909,263.9004,0,U,65048,999,4195,.10243581E-3,-.77E-6,0
HULIANWANG DIGUI-46,2025-162G,2026-06-06T14:10:53.422176,13.29324524,.00003871,50.0075,303.6763,95.1185,264.9732,0,U,65049,999,4195,.10997801E-3,-.73E-6,0
HULIANWANG DIGUI-47,2025-162H,2026-06-06T15:47:06.957888,13.29324112,.00004308,50.0039,303.2763,96.6704,263.4217,0,U,65050,999,4196,.10019221E-3,-.78E-6,0
HULIANWANG DIGUI-48,2025-162J,2026-06-06T15:35:06.670464,13.29325032,.0000388,50.0049,303.2570,98.4874,261.6042,0,U,65051,999,4196,.94920965E-4,-.8E-6,0
NISAR,2025-163A,2026-06-06T13:15:20.111040,14.42505666,.0001215,98.4054,345.3728,89.6107,270.5222,0,U,65053,999,4485,.69553142E-4,.187E-5,0
PRSC-S1,2025-164A,2026-06-06T14:09:17.398944,15.06359640,.00076245,41.1315,347.4924,281.7615,78.2344,0,U,65055,999,4683,.41996062E-3,.6121E-4,0
STARLINK-34788,2025-165A,2026-06-06T15:12:11.996352,15.05654233,.00024612,97.3960,234.2322,133.4182,226.7250,0,U,65056,999,4817,.75252786E-3,.10818E-3,0
STARLINK-34745,2025-165B,2026-06-06T10:53:00.965760,15.05661510,.00019516,97.3959,234.0166,113.5918,246.5515,0,U,65057,999,4814,.35003918E-3,.4998E-4,0
STARLINK-34779,2025-165C,2026-06-06T11:56:49.068960,15.05659785,.00014315,97.3983,234.1072,142.6445,217.4882,0,U,65058,999,4815,.56784924E-3,.8147E-4,0
STARLINK-34803,2025-165D,2026-06-06T11:48:50.582304,15.05664508,.00012823,97.3958,234.1167,145.2202,214.9110,0,U,65059,999,4815,.22992495E-3,.3262E-4,0
STARLINK-34717,2025-165E,2026-06-06T14:44:18.082752,15.05659450,.00020802,97.3964,234.2578,102.2732,257.8729,0,U,65060,999,4817,.3913089E-3,.5594E-4,0
STARLINK-34750,2025-165F,2026-06-06T11:12:57.985920,15.05661754,.0001141,97.3968,234.1500,133.9304,226.2018,0,U,65061,999,4815,.52783933E-3,.7568E-4,0
